start=new Date('2021-12-16T00:00:00.000Z').valueOf();
sats=[{"CENTER_NAME":"EARTH","REF_FRAME":"TEME","EPHEMERIS_TYPE":"0","CLASSIFICATION_TYPE":"U","INCLINATION":"53.0488","MEAN_MOTION_DOT":"0.00346129","PERIOD":"92.693","NORAD_CAT_ID":"47605","OBJECT_NAME":"STARLINK-2023","GP_ID":"191799379","OBJECT_TYPE":"PAYLOAD","RCS_SIZE":"LARGE","EPOCH":"2021-12-15T21:38:11.439456","LAUNCH_DATE":"2021-02-04","BSTAR":"0.00512950000000","FILE":"3241542","COUNTRY_CODE":"US","TIME_SYSTEM":"UTC","RA_OF_ASC_NODE":"102.9094","PERIAPSIS":"405.453","APOAPSIS":"407.478","MEAN_MOTION":"15.53518203","TLE_LINE1":"1 47605U 21009BK  21349.90152129  .00346129  00000-0  51295-2 0  9991","MEAN_ANOMALY":"299.6278","OBJECT_ID":"2021-009BK","TLE_LINE2":"2 47605  53.0488 102.9094 0001492  60.4880 299.6278 15.53518203 48142","ELEMENT_SET_NO":"999","REV_AT_EPOCH":"4814","SEMIMAJOR_AXIS":"6784.600","SITE":"AFETR","MEAN_MOTION_DDOT":"0.0000000000000","ECCENTRICITY":"0.00014920","DECAY_DATE":null,"MEAN_ELEMENT_THEORY":"SGP4","ARG_OF_PERICENTER":"60.4880"},{"REV_AT_EPOCH":"4807","ELEMENT_SET_NO":"999","TLE_LINE2":"2 47606  53.0568 107.2883 0001555  96.7276 263.3890 15.06398562 48079","OBJECT_ID":"2021-009BL","TLE_LINE1":"1 47606U 21009BL  21349.70985530  .00000979  00000-0  84602-4 0  9990","MEAN_ANOMALY":"263.3890","MEAN_MOTION":"15.06398562","APOAPSIS":"548.295","PERIAPSIS":"546.141","TIME_SYSTEM":"UTC","RA_OF_ASC_NODE":"107.2883","ARG_OF_PERICENTER":"96.7276","MEAN_ELEMENT_THEORY":"SGP4","ECCENTRICITY":"0.00015550","DECAY_DATE":null,"MEAN_MOTION_DDOT":"0.0000000000000","SITE":"AFETR","SEMIMAJOR_AXIS":"6925.353","OBJECT_NAME":"STARLINK-2024","MEAN_MOTION_DOT":"0.00000979","PERIOD":"95.592","NORAD_CAT_ID":"47606","INCLINATION":"53.0568","CLASSIFICATION_TYPE":"U","EPHEMERIS_TYPE":"0","REF_FRAME":"TEME","CENTER_NAME":"EARTH","BSTAR":"0.00008460200000","FILE":"3241542","COUNTRY_CODE":"US","LAUNCH_DATE":"2021-02-04","EPOCH":"2021-12-15T17:02:11.497920","RCS_SIZE":"LARGE","OBJECT_TYPE":"PAYLOAD","GP_ID":"191797628"},{"REV_AT_EPOCH":"4808","OBJECT_ID":"2021-009BM","TLE_LINE2":"2 47607  53.0534 106.8066 0001636  97.8413 262.2761 15.06402744 48080","ELEMENT_SET_NO":"999","APOAPSIS":"548.338","MEAN_ANOMALY":"262.2761","TLE_LINE1":"1 47607U 21009BM  21349.82043201 -.00000471  00000-0 -12718-4 0  9992","MEAN_MOTION":"15.06402744","RA_OF_ASC_NODE":"106.8066","TIME_SYSTEM":"UTC","PERIAPSIS":"546.072","ARG_OF_PERICENTER":"97.8413","MEAN_MOTION_DDOT":"0.0000000000000","MEAN_ELEMENT_THEORY":"SGP4","ECCENTRICITY":"0.00016360","DECAY_DATE":null,"SITE":"AFETR","SEMIMAJOR_AXIS":"6925.340","INCLINATION":"53.0534","OBJECT_NAME":"STARLINK-2025","NORAD_CAT_ID":"47607","PERIOD":"95.592","MEAN_MOTION_DOT":"-0.00000471","EPHEMERIS_TYPE":"0","CLASSIFICATION_TYPE":"U","REF_FRAME":"TEME","CENTER_NAME":"EARTH","LAUNCH_DATE":"2021-02-04","EPOCH":"2021-12-15T19:41:25.325664","FILE":"3241542","BSTAR":"-0.00001271800000","COUNTRY_CODE":"US","RCS_SIZE":"LARGE","OBJECT_TYPE":"PAYLOAD","GP_ID":"191797878"},{"GP_ID":"191797629","OBJECT_TYPE":"PAYLOAD","RCS_SIZE":"LARGE","FILE":"3241542","COUNTRY_CODE":"US","BSTAR":"0.00003158900000","EPOCH":"2021-12-15T21:40:52.985856","LAUNCH_DATE":"2021-02-16","CENTER_NAME":"EARTH","REF_FRAME":"TEME","CLASSIFICATION_TYPE":"U","EPHEMERIS_TYPE":"0","PERIOD":"95.592","NORAD_CAT_ID":"47620","MEAN_MOTION_DOT":"0.00000189","OBJECT_NAME":"STARLINK-1528","INCLINATION":"53.0532","SEMIMAJOR_AXIS":"6925.344","SITE":"AFETR","DECAY_DATE":null,"ECCENTRICITY":"0.00027150","MEAN_ELEMENT_THEORY":"SGP4","MEAN_MOTION_DDOT":"0.0000000000000","ARG_OF_PERICENTER":"86.7387","PERIAPSIS":"545.329","TIME_SYSTEM":"UTC","RA_OF_ASC_NODE":"166.4376","MEAN_MOTION":"15.06401521","TLE_LINE1":"1 47620U 21012A   21349.90339104  .00000189  00000-0  31589-4 0  9991","MEAN_ANOMALY":"273.3913","APOAPSIS":"549.089","TLE_LINE2":"2 47620  53.0532 166.4376 0002715  86.7387 273.3913 15.06401521 47145","ELEMENT_SET_NO":"999","OBJECT_ID":"2021-012A","REV_AT_EPOCH":"4714"},{"RCS_SIZE":"LARGE","OBJECT_TYPE":"PAYLOAD","COUNTRY_CODE":"US","FILE":"3241542","BSTAR":"0.00004803500000","LAUNCH_DATE":"2021-02-16","EPOCH":"2021-12-15T21:30:16.571232","GP_ID":"191797879","CLASSIFICATION_TYPE":"U","EPHEMERIS_TYPE":"0","OBJECT_NAME":"STARLINK-1609","PERIOD":"95.593","NORAD_CAT_ID":"47621","MEAN_MOTION_DOT":"0.00000434","INCLINATION":"53.0546","CENTER_NAME":"EARTH","REF_FRAME":"TEME","MEAN_ELEMENT_THEORY":"SGP4","DECAY_DATE":null,"ECCENTRICITY":"0.00022550","MEAN_MOTION_DDOT":"0.0000000000000","ARG_OF_PERICENTER":"84.2506","SEMIMAJOR_AXIS":"6925.378","SITE":"AFETR","ELEMENT_SET_NO":"999","TLE_LINE2":"2 47621  53.0546 166.4670 0002255  84.2506 275.8740 15.06390405 47157","OBJECT_ID":"2021-012B","REV_AT_EPOCH":"4715","PERIAPSIS":"545.681","TIME_SYSTEM":"UTC","RA_OF_ASC_NODE":"166.4670","MEAN_ANOMALY":"275.8740","TLE_LINE1":"1 47621U 21012B   21349.89602513  .00000434  00000-0  48035-4 0  9994","MEAN_MOTION":"15.06390405","APOAPSIS":"548.805"},{"REV_AT_EPOCH":"4712","OBJECT_ID":"2021-012C","TLE_LINE2":"2 47622  53.0542 167.0692 0002583  87.6013 272.5272 15.06385544 47128","ELEMENT_SET_NO":"999","APOAPSIS":"549.047","MEAN_ANOMALY":"272.5272","TLE_LINE1":"1 47622U 21012C   21349.75964350  .00000408  00000-0  46310-4 0  9995","MEAN_MOTION":"15.06385544","RA_OF_ASC_NODE":"167.0692","TIME_SYSTEM":"UTC","PERIAPSIS":"545.469","ARG_OF_PERICENTER":"87.6013","MEAN_MOTION_DDOT":"0.0000000000000","MEAN_ELEMENT_THEORY":"SGP4","DECAY_DATE":null,"ECCENTRICITY":"0.00025830","SEMIMAJOR_AXIS":"6925.393","SITE":"AFETR","INCLINATION":"53.0542","OBJECT_NAME":"STARLINK-1645","MEAN_MOTION_DOT":"0.00000408","PERIOD":"95.593","NORAD_CAT_ID":"47622","EPHEMERIS_TYPE":"0","CLASSIFICATION_TYPE":"U","REF_FRAME":"TEME","CENTER_NAME":"EARTH","LAUNCH_DATE":"2021-02-16","EPOCH":"2021-12-15T18:13:53.198400","FILE":"3241542","COUNTRY_CODE":"US","BSTAR":"0.00004631000000","RCS_SIZE":"LARGE","OBJECT_TYPE":"PAYLOAD","GP_ID":"191799130"},{"MEAN_ANOMALY":"262.5602","TLE_LINE1":"1 47623U 21012D   21349.77113421  .00001535  00000-0  12190-3 0  9993","MEAN_MOTION":"15.06399446","APOAPSIS":"548.012","PERIAPSIS":"546.418","TIME_SYSTEM":"UTC","RA_OF_ASC_NODE":"102.0197","REV_AT_EPOCH":"4804","TLE_LINE2":"2 47623  53.0559 102.0197 0001151  97.5518 262.5602 15.06399446 48040","ELEMENT_SET_NO":"999","OBJECT_ID":"2021-012D","SITE":"AFETR","SEMIMAJOR_AXIS":"6925.350","ARG_OF_PERICENTER":"97.5518","MEAN_ELEMENT_THEORY":"SGP4","DECAY_DATE":null,"ECCENTRICITY":"0.00011510","MEAN_MOTION_DDOT":"0.0000000000000","REF_FRAME":"TEME","CENTER_NAME":"EARTH","OBJECT_NAME":"STARLINK-1655","MEAN_MOTION_DOT":"0.00001535","PERIOD":"95.592","NORAD_CAT_ID":"47623","INCLINATION":"53.0559","CLASSIFICATION_TYPE":"U","EPHEMERIS_TYPE":"0","GP_ID":"191798881","FILE":"3241542","COUNTRY_CODE":"US","BSTAR":"0.00012190000000","LAUNCH_DATE":"2021-02-16","EPOCH":"2021-12-15T18:30:25.995744","RCS_SIZE":"LARGE","OBJECT_TYPE":"PAYLOAD"},{"EPHEMERIS_TYPE":"0","CLASSIFICATION_TYPE":"U","INCLINATION":"53.0549","NORAD_CAT_ID":"47624","PERIOD":"95.592","MEAN_MOTION_DOT":"0.00000765","OBJECT_NAME":"STARLINK-1669","CENTER_NAME":"EARTH","REF_FRAME":"TEME","OBJECT_TYPE":"PAYLOAD","RCS_SIZE":"LARGE","EPOCH":"2021-12-15T21:32:56.443200","LAUNCH_DATE":"2021-02-16","FILE":"3241542","BSTAR":"0.00007029400000","COUNTRY_CODE":"US","GP_ID":"191798129","OBJECT_ID":"2021-012E","ELEMENT_SET_NO":"999","TLE_LINE2":"2 47624  53.0549 146.4548 0002070  96.2800 263.8425 15.06400486 47440","REV_AT_EPOCH":"4744","TIME_SYSTEM":"UTC","RA_OF_ASC_NODE":"146.4548","PERIAPSIS":"545.779","APOAPSIS":"548.646","MEAN_MOTION":"15.06400486","MEAN_ANOMALY":"263.8425","TLE_LINE1":"1 47624U 21012E   21349.89787550  .00000765  00000-0  70294-4 0  9991","MEAN_MOTION_DDOT":"0.0000000000000","DECAY_DATE":null,"ECCENTRICITY":"0.00020700","MEAN_ELEMENT_THEORY":"SGP4","ARG_OF_PERICENTER":"96.2800","SEMIMAJOR_AXIS":"6925.347","SITE":"AFETR"},{"REV_AT_EPOCH":"4714","OBJECT_ID":"2021-012F","ELEMENT_SET_NO":"999","TLE_LINE2":"2 47625  53.0545 166.4481 0002399  91.0106 269.1157 15.06393278 47149","APOAPSIS":"548.896","TLE_LINE1":"1 47625U 21012F   21349.89969018 -.00001160  00000-0 -58994-4 0  9998","MEAN_ANOMALY":"269.1157","MEAN_MOTION":"15.06393278","TIME_SYSTEM":"UTC","RA_OF_ASC_NODE":"166.4481","PERIAPSIS":"545.573","ARG_OF_PERICENTER":"91.0106","MEAN_MOTION_DDOT":"0.0000000000000","MEAN_ELEMENT_THEORY":"SGP4","DECAY_DATE":null,"ECCENTRICITY":"0.00023990","SEMIMAJOR_AXIS":"6925.369","SITE":"AFETR","INCLINATION":"53.0545","OBJECT_NAME":"STARLINK-1704","MEAN_MOTION_DOT":"-0.00001160","PERIOD":"95.593","NORAD_CAT_ID":"47625","EPHEMERIS_TYPE":"0","CLASSIFICATION_TYPE":"U","REF_FRAME":"TEME","CENTER_NAME":"EARTH","LAUNCH_DATE":"2021-02-16","EPOCH":"2021-12-15T21:35:33.231552","COUNTRY_CODE":"US","FILE":"3241542","BSTAR":"-0.00005899400000","RCS_SIZE":"LARGE","OBJECT_TYPE":"PAYLOAD","GP_ID":"191798379"},{"PERIAPSIS":"545.705","RA_OF_ASC_NODE":"166.5019","TIME_SYSTEM":"UTC","TLE_LINE1":"1 47626U 21012G   21349.88496903  .00002176  00000-0  16491-3 0  9997","MEAN_ANOMALY":"274.4651","MEAN_MOTION":"15.06407599","APOAPSIS":"548.675","ELEMENT_SET_NO":"999","TLE_LINE2":"2 47626  53.0543 166.5019 0002144  85.6583 274.4651 15.06407599 47142","OBJECT_ID":"2021-012G","REV_AT_EPOCH":"4714","SITE":"AFETR","SEMIMAJOR_AXIS":"6925.325","MEAN_ELEMENT_THEORY":"SGP4","ECCENTRICITY":"0.00021440","DECAY_DATE":null,"MEAN_MOTION_DDOT":"0.0000000000000","ARG_OF_PERICENTER":"85.6583","CENTER_NAME":"EARTH","REF_FRAME":"TEME","CLASSIFICATION_TYPE":"U","EPHEMERIS_TYPE":"0","OBJECT_NAME":"STARLINK-1761","PERIOD":"95.592","MEAN_MOTION_DOT":"0.00002176","NORAD_CAT_ID":"47626","INCLINATION":"53.0543","GP_ID":"191798631","RCS_SIZE":"LARGE","OBJECT_TYPE":"PAYLOAD","BSTAR":"0.00016491000000","FILE":"3241542","COUNTRY_CODE":"US","LAUNCH_DATE":"2021-02-16","EPOCH":"2021-12-15T21:14:21.324192"}];
